IRIDIUM 33 DEB          
1 35616U 97051QN  26161.54502012  .00010120  00000+0  11278-2 0  9992
2 35616  86.3515 263.2955 0006592 254.4910 105.5587 14.86959673902426
IRIDIUM 33 DEB          
1 35618U 97051QQ  26162.02448463  .00001582  00000+0  37579-3 0  9992
2 35618  86.3382 274.6011 0030216 129.5621 230.8262 14.53031404680118
IRIDIUM 33 DEB          
1 35620U 97051QS  26163.21467094  .00009350  00000+0  25462-2 0  9996
2 35620  86.3892 140.6906 0136016  23.3973 337.3337 14.41968206625782
IRIDIUM 33 DEB          
1 35622U 97051QU  26161.29035037  .00085465  00000+0  34621-2 0  9990
2 35622  86.1886 173.6497 0000950 310.6617  62.5088 15.24309876900779
IRIDIUM 33 DEB          
1 35625U 97051QX  26158.19250094  .00003287  00000+0  11537-2 0  9993
2 35625  86.1884 305.5816 0102770 350.7016 129.1405 14.31825019685640
IRIDIUM 33 DEB          
1 35628U 97051RA  26162.07255813  .00005969  00000+0  98155-3 0  9993
2 35628  86.3533 288.4405 0012978  76.7709 283.4953 14.70398443890945
IRIDIUM 33 DEB          
1 35631U 97051RD  26163.14893228  .00000709  00000+0  18615-3 0  9994
2 35631  86.3652 302.8401 0015173 231.4510 308.5685 14.47801554898213
IRIDIUM 33 DEB          
1 35680U 97051RJ  26160.65849522  .00002569  00000+0  10053-2 0  9992
2 35680  86.0960 302.1599 0150207  70.3077 308.0449 14.23139343632441
IRIDIUM 33 DEB          
1 35744U 97051RX  26161.49324994  .00004278  00000+0  65388-3 0  9998
2 35744  86.3281 244.0157 0017542 298.8992  61.0465 14.73474177899768
IRIDIUM 33 DEB          
1 35797U 97051SF  26162.96710802  .00011230  00000+0  12169-2 0  9990
2 35797  86.3343 246.2944 0009309 227.0834 132.9611 14.88087771900315
IRIDIUM 33 DEB          
1 35806U 97051SQ  26160.66743860  .00004282  00000+0  90186-3 0  9991
2 35806  86.3420 301.7055 0013300 172.2336 187.9083 14.59247438889322
IRIDIUM 33 DEB          
1 35809U 97051ST  26161.96735534  .00007326  00000+0  97205-3 0  9998
2 35809  86.3254 252.9619 0009788 351.5474   8.5581 14.79675651894694
IRIDIUM 33 DEB          
1 35846U 97051SW  26161.23317353  .00001309  00000+0  37821-3 0  9997
2 35846  86.3745 342.2124 0015962 305.3859  54.5850 14.43843533739188
IRIDIUM 33 DEB          
1 35848U 97051SY  26163.07133359  .00009376  00000+0  11469-2 0  9996
2 35848  86.3850 294.2441 0005370 288.6455  71.4184 14.83123089693742
IRIDIUM 33 DEB          
1 35850U 97051TA  26161.97976143  .00008477  00000+0  10343-2 0  9993
2 35850  86.3462 261.9049 0006377 287.1690  72.8835 14.83217706740259
IRIDIUM 33 DEB          
1 35915U 97051TY  26161.98329116  .00010014  00000+0  11467-2 0  9996
2 35915  86.3409 260.1954 0007833 281.8648  78.1697 14.85841922107583
IRIDIUM 33 DEB          
1 35918U 97051UB  26162.30678082  .00002505  00000+0  60409-3 0  9992
2 35918  86.4024 358.2178 0023510 288.1759 250.4013 14.52716664878276
IRIDIUM 33 DEB          
1 35929U 97051UN  26162.48370652  .00040224  00000+0  19872-2 0  9992
2 35929  86.3415 226.0586 0013845  88.0759 272.2068 15.17606493905074
IRIDIUM 33 DEB          
1 36011U 97051US  26157.21382911  .00001483  00000+0  44650-3 0  9998
2 36011  86.3394 320.0410 0018578  10.0193 163.8896 14.41897046670681
IRIDIUM 33 DEB          
1 36012U 97051UT  26158.96613493  .00003502  00000+0  12481-2 0  9994
2 36012  86.4390 235.8973 0220612  57.6754 304.5588 14.21267855680006
IRIDIUM 33 DEB          
1 36028U 97051VK  26160.92315217  .00023404  00000+0  16415-2 0  9997
2 36028  86.3235 221.7383 0017354 117.3716 242.9287 15.04947617898115
IRIDIUM 33 DEB          
1 36080U 97051VM  26157.10798166  .00002202  00000+0  59529-3 0  9996
2 36080  86.3103 291.5097 0015851 295.6937  64.2629 14.47346085499502
IRIDIUM 33 DEB          
1 36083U 97051VQ  26157.71597404  .00001599  00000+0  46173-3 0  9997
2 36083  86.3418 318.3694 0026361   9.5658 350.6039 14.43876596879886
IRIDIUM 33 DEB          
1 36390U 97051VU  26162.42631536  .00002995  00000+0  42961-3 0  9999
2 36390  86.2905 216.3866 0026216 260.0855  99.7405 14.75968019689252
IRIDIUM 33 DEB          
1 36483U 97051VZ  26160.76020892  .00001358  00000+0  37222-3 0  9990
2 36483  86.3791 335.8369 0007008 250.6760 109.3685 14.46461836677339
IRIDIUM 33 DEB          
1 36490U 97051WG  26163.07252132  .00010064  00000+0  13039-2 0  9992
2 36490  86.3610 288.3299 0004727 134.0982 226.0629 14.80729586891641
IRIDIUM 33 DEB          
1 36493U 97051WK  26163.07543351  .00005230  00000+0  91322-3 0  9992
2 36493  86.3540 290.9306 0012408  92.7052 267.5583 14.67737344771762
IRIDIUM 33 DEB          
1 37136U 97051XG  26151.57186540  .00002141  00000+0  82395-3 0  9990
2 37136  86.1698 262.7651 0077650 160.1333 200.2913 14.28277066669226
IRIDIUM 33 DEB          
1 37548U 97051XH  26162.16936912  .00002450  00000+0  59168-3 0  9995
2 37548  86.3508 324.7701 0022677 311.1589  48.7660 14.52639421681503
