OBJECT_NAME,OBJECT_ID,EPOCH,MEAN_MOTION,ECCENTRICITY,INCLINATION,RA_OF_ASC_NODE,ARG_OF_PERICENTER,MEAN_ANOMALY,EPHEMERIS_TYPE,CLASSIFICATION_TYPE,NORAD_CAT_ID,ELEMENT_SET_NO,REV_AT_EPOCH,BSTAR,MEAN_MOTION_DOT,MEAN_MOTION_DDOT
IRIDIUM 33 DEB,1997-051QN,2026-06-10T13:04:49.738368,14.86959673,.00065927,86.3515,263.2955,254.4910,105.5587,0,U,35616,999,90242,.11277996E-2,.1012E-3,0
IRIDIUM 33 DEB,1997-051QQ,2026-06-11T00:35:15.472032,14.53031404,.00302169,86.3382,274.6011,129.5621,230.8262,0,U,35618,999,68011,.37578616E-3,.1582E-4,0
IRIDIUM 33 DEB,1997-051QS,2026-06-12T05:09:07.569216,14.41968206,.01360164,86.3892,140.6906,23.3973,337.3337,0,U,35620,999,62578,.25461745E-2,.935E-4,0
IRIDIUM 33 DEB,1997-051QU,2026-06-10T06:58:06.271968,15.24309876,.000095,86.1886,173.6497,310.6617,62.5088,0,U,35622,999,90077,.34621E-2,.85465E-3,0
IRIDIUM 33 DEB,1997-051QX,2026-06-07T04:37:12.081216,14.31825019,.010277,86.1884,305.5816,350.7016,129.1405,0,U,35625,999,68564,.11537276E-2,.3287E-4,0
IRIDIUM 33 DEB,1997-051RA,2026-06-11T01:44:29.022432,14.70398443,.00129787,86.3533,288.4405,76.7709,283.4953,0,U,35628,999,89094,.98154534E-3,.5969E-4,0
IRIDIUM 33 DEB,1997-051RD,2026-06-12T03:34:27.748992,14.47801554,.00151738,86.3652,302.8401,231.4510,308.5685,0,U,35631,999,89821,.18615433E-3,.709E-5,0
IRIDIUM 33 DEB,1997-051RJ,2026-06-09T15:48:13.987008,14.23139343,.01502077,86.0960,302.1599,70.3077,308.0449,0,U,35680,999,63244,.10052938E-2,.2569E-4,0
IRIDIUM 33 DEB,1997-051RX,2026-06-10T11:50:16.794816,14.73474177,.00175426,86.3281,244.0157,298.8992,61.0465,0,U,35744,999,89976,.65388348E-3,.4278E-4,0
IRIDIUM 33 DEB,1997-051SF,2026-06-11T23:12:38.132928,14.88087771,.00093093,86.3343,246.2944,227.0834,132.9611,0,U,35797,999,90031,.12168606E-2,.1123E-3,0
IRIDIUM 33 DEB,1997-051SQ,2026-06-09T16:01:06.695040,14.59247438,.00133009,86.3420,301.7055,172.2336,187.9083,0,U,35806,999,88932,.90186061E-3,.4282E-4,0
IRIDIUM 33 DEB,1997-051ST,2026-06-10T23:12:59.501376,14.79675651,.0009788,86.3254,252.9619,351.5474,8.5581,0,U,35809,999,89469,.97204519E-3,.7326E-4,0
IRIDIUM 33 DEB,1997-051SW,2026-06-10T05:35:46.192992,14.43843533,.0015962,86.3745,342.2124,305.3859,54.5850,0,U,35846,999,73918,.37821E-3,.1309E-4,0
IRIDIUM 33 DEB,1997-051SY,2026-06-12T01:42:43.222176,14.83123089,.000537,86.3850,294.2441,288.6455,71.4184,0,U,35848,999,69374,.11469098E-2,.9376E-4,0
IRIDIUM 33 DEB,1997-051TA,2026-06-10T23:30:51.387552,14.83217706,.00063771,86.3462,261.9049,287.1690,72.8835,0,U,35850,999,74025,.10342528E-2,.8477E-4,0
IRIDIUM 33 DEB,1997-051TY,2026-06-10T23:35:56.356224,14.85841922,.00078338,86.3409,260.1954,281.8648,78.1697,0,U,35915,999,10758,.11466723E-2,.10014E-3,0
IRIDIUM 33 DEB,1997-051UB,2026-06-11T07:21:45.862848,14.52716664,.002351,86.4024,358.2178,288.1759,250.4013,0,U,35918,999,87827,.60409E-3,.2505E-4,0
IRIDIUM 33 DEB,1997-051UN,2026-06-11T11:36:32.243328,15.17606493,.0013845,86.3415,226.0586,88.0759,272.2068,0,U,35929,999,90507,.19872E-2,.40224E-3,0
IRIDIUM 33 DEB,1997-051US,2026-06-06T05:07:54.835104,14.41897046,.00185788,86.3394,320.0410,10.0193,163.8896,0,U,36011,999,67068,.44650472E-3,.1483E-4,0
IRIDIUM 33 DEB,1997-051UT,2026-06-07T23:11:14.057952,14.21267855,.02206125,86.4390,235.8973,57.6754,304.5588,0,U,36012,999,68000,.12481075E-2,.3502E-4,0
IRIDIUM 33 DEB,1997-051VK,2026-06-09T22:09:20.347488,15.04947617,.00173545,86.3235,221.7383,117.3716,242.9287,0,U,36028,999,89811,.16415204E-2,.23404E-3,0
IRIDIUM 33 DEB,1997-051VM,2026-06-06T02:35:29.615424,14.47346085,.0015851,86.3103,291.5097,295.6937,64.2629,0,U,36080,999,49950,.59529E-3,.2202E-4,0
IRIDIUM 33 DEB,1997-051VQ,2026-06-06T17:11:00.157056,14.43876596,.00263618,86.3418,318.3694,9.5658,350.6039,0,U,36083,999,87988,.46173126E-3,.1599E-4,0
IRIDIUM 33 DEB,1997-051VU,2026-06-11T10:13:53.647104,14.75968019,.0026216,86.2905,216.3866,260.0855,99.7405,0,U,36390,999,68925,.42961E-3,.2995E-4,0
IRIDIUM 33 DEB,1997-051VZ,2026-06-09T18:14:42.050688,14.46461836,.00070085,86.3791,335.8369,250.6760,109.3685,0,U,36483,999,67733,.37222382E-3,.1358E-4,0
IRIDIUM 33 DEB,1997-051WG,2026-06-12T01:44:25.842048,14.80729586,.00047277,86.3610,288.3299,134.0982,226.0629,0,U,36490,999,89164,.1303916E-2,.10064E-3,0
IRIDIUM 33 DEB,1997-051WK,2026-06-12T01:48:37.455264,14.67737344,.00124089,86.3540,290.9306,92.7052,267.5583,0,U,36493,999,77176,.91322426E-3,.523E-4,0
IRIDIUM 33 DEB,1997-051XG,2026-05-31T13:43:29.170560,14.28277066,.00776505,86.1698,262.7651,160.1333,200.2913,0,U,37136,999,66922,.82394713E-3,.2141E-4,0
IRIDIUM 33 DEB,1997-051XH,2026-06-11T04:03:53.491968,14.52639421,.00226778,86.3508,324.7701,311.1589,48.7660,0,U,37548,999,68150,.59167755E-3,.245E-4,0
